     3.00           N                   E                   RINEX VERSION / TYPE
BRD_USR             ESA                 20190114 171707  UTCPGM / RUN BY / DATE
 GAL   4.0250E+01  1.6406E-01 -7.0190E-04  0.0000E+00       IONOSPHERIC CORR
GAUT  2.7939677238E-09-1.776356839E-15  86400 2036 GSTB   0 TIME SYSTEM CORR
GPGA -1.4551915228E-09-1.110223025E-14 172800 2036 GSTB   0 TIME SYSTEM CORR
                                                            END OF HEADER
E21 2019 01 14 14 50 00-5.144032184035E-04-1.833200258261E-12 0.000000000000E+00
     1.050000000000E+02 4.503125000000E+01 2.870119552000E-09 1.694537451487E+00
     2.019107341766E-06 4.643585998565E-05 4.658475518227E-06 5.440624498367E+03
     1.398000000000E+05-9.313225746155E-09-3.073207209404E+00-1.005828380585E-07
     9.896643629674E-01 2.569687500000E+02 5.446614512214E-01-5.629877364133E-09
    -1.732215010851E-10 2.580000000000E+02 2.036000000000E+03 0.000000000000E+00
     3.120000000000E+00 0.000000000000E+00-2.561137080193E-09 0.000000000000E+00
     1.405000000000E+05 0.000000000000E+00 0.000000000000E+00 0.000000000000E+00
E24 2019 01 14 14 50 00 6.286305957474E-03-1.973887719942E-11 0.000000000000E+00
     1.050000000000E+02 5.765625000000E+01 3.001196440450E-09-6.662815568212E-01
     2.544373273849E-06 4.776674322784E-04 4.244968295097E-06 5.440611515045E+03
     1.398000000000E+05-4.284083843231E-08-3.067140445705E+00 1.862645149231E-08
     9.876678630738E-01 2.595937500000E+02 5.287817929242E-01-5.733810264784E-09
    -1.321483616526E-10 2.580000000000E+02 2.036000000000E+03 0.000000000000E+00
     3.120000000000E+00 0.000000000000E+00 4.307366907597E-08 0.000000000000E+00
     1.405000000000E+05 0.000000000000E+00 0.000000000000E+00 0.000000000000E+00
E26 2019 01 14 14 50 00 5.020448763389E-03-4.331468517194E-11 0.000000000000E+00
     1.050000000000E+02 1.531250000000E+00 2.733685297537E-09 2.108693657361E+00
     1.117587089539E-07 3.156076418236E-04 8.614733815193E-06 5.440612356186E+03
     1.398000000000E+05 1.862645149231E-08-9.816951050273E-01 3.166496753693E-08
     9.783350323582E-01 1.630625000000E+02-1.973275941881E+00-5.533801933634E-09
     3.782300405137E-10 2.580000000000E+02 2.036000000000E+03 0.000000000000E+00
     3.120000000000E+00 0.000000000000E+00 1.164153218269E-09 0.000000000000E+00
     1.405000000000E+05 0.000000000000E+00 0.000000000000E+00 0.000000000000E+00
E30 2019 01 14 14 50 00 5.189006682485E-03-3.045386165468E-11 0.000000000000E+00
     1.050000000000E+02 4.796875000000E+01 2.930836366813E-09-3.105290638425E+00
     2.263113856316E-06 3.142271889374E-04 4.464760422707E-06 5.440615377426E+03
     1.398000000000E+05 4.097819328308E-08-3.067197258129E+00-1.117587089539E-08
     9.876522420345E-01 2.576250000000E+02 6.141047373216E-01-5.678807973718E-09
    -1.507205638307E-10 2.580000000000E+02 2.036000000000E+03 0.000000000000E+00
     3.120000000000E+00 0.000000000000E+00-3.026798367500E-09 0.000000000000E+00
     1.405000000000E+05 0.000000000000E+00 0.000000000000E+00 0.000000000000E+00
E31 2019 01 14 14 50 00 9.327943553217E-04-9.748646334629E-12 0.000000000000E+00
     1.050000000000E+02 6.118750000000E+01 2.964052036093E-09 2.226796701626E+00
     2.836808562279E-06 2.159760333598E-04 4.211440682411E-06 5.440622827530E+03
     1.398000000000E+05-2.048909664154E-08-3.073239893920E+00 2.048909664154E-08
     9.896390018196E-01 2.613750000000E+02-1.556877313732E+00-5.700951753238E-09
    -9.928985010651E-11 2.580000000000E+02 2.036000000000E+03 0.000000000000E+00
     3.120000000000E+00 0.000000000000E+00-2.328306436539E-10 0.000000000000E+00
     1.405000000000E+05 0.000000000000E+00 0.000000000000E+00 0.000000000000E+00
E36 2019 01 14 14 50 00 7.597319199704E-04-4.504840944719E-12 0.000000000000E+00
     1.050000000000E+02-1.940625000000E+01 2.649396072267E-09-1.494584882385E+00
    -8.065253496170E-07 3.344205906615E-04 8.385628461838E-06 5.440599002838E+03
     1.398000000000E+05 2.421438694000E-08-9.906030121688E-01-3.725290298462E-09
     9.852231675052E-01 1.732500000000E+02-1.515965759270E+00-5.422725878299E-09
     3.160845947635E-10 2.580000000000E+02 2.036000000000E+03 0.000000000000E+00
     3.120000000000E+00 5.600000000000E+01 9.313225746155E-10 0.000000000000E+00
     1.405000000000E+05 0.000000000000E+00 0.000000000000E+00 0.000000000000E+00
E05 2019 01 14 14 30 00 1.251762732863E-04-6.536993168993E-12 0.000000000000E+00
     1.030000000000E+02-5.600000000000E+01 3.436571718435E-09-6.024889936849E-01
    -2.531334757805E-06 1.322746975347E-04 9.167939424515E-06 5.440615022659E+03
     1.386000000000E+05-2.980232238770E-08 1.120010555472E+00-2.235174179077E-08
     9.524513375127E-01 1.397187500000E+02 1.626701692918E+00-5.651306828185E-09
    -1.782217093638E-10 2.580000000000E+02 2.036000000000E+03 0.000000000000E+00
     3.120000000000E+00 0.000000000000E+00-1.629814505577E-09 0.000000000000E+00
     1.406000000000E+05 0.000000000000E+00 0.000000000000E+00 0.000000000000E+00
E02 2019 01 14 15 00 00 4.330830415711E-05 1.577404873387E-12 0.000000000000E+00
     1.060000000000E+02 4.925000000000E+01 2.834046620846E-09-1.502957099647E+00
     2.320855855942E-06 2.562410663813E-04 4.602596163750E-06 5.440617408752E+03
     1.404000000000E+05 1.676380634308E-08-3.070635001507E+00 2.421438694000E-08
     9.901088486820E-01 2.564375000000E+02-1.280646956886E-01-5.626305786791E-09
    -1.178620522847E-10 5.210000000000E+02 2.036000000000E+03 0.000000000000E+00
     3.120000000000E+00 0.000000000000E+00-6.053596735001E-09-7.450580596924E-09
     1.410850000000E+05 0.000000000000E+00 0.000000000000E+00 0.000000000000E+00
E03 2019 01 14 15 00 00-1.221108832397E-04-4.220623850415E-12 0.000000000000E+00
     1.060000000000E+02-4.537500000000E+01 3.400141629547E-09-1.651368479840E-01
    -2.121552824974E-06 2.591842785478E-04 9.486451745033E-06 5.440619029999E+03
     1.404000000000E+05-3.352761268616E-08 1.120016354480E+00-3.725290298462E-09
     9.524373651821E-01 1.346875000000E+02 6.249985133311E-01-5.647378093108E-09
    -1.471489864888E-10 5.210000000000E+02 2.036000000000E+03 0.000000000000E+00
     3.120000000000E+00 0.000000000000E+00-1.862645149231E-09-2.095475792885E-09
     1.410850000000E+05 0.000000000000E+00 0.000000000000E+00 0.000000000000E+00
E07 2019 01 14 15 00 00-1.124693080783E-04-7.105427357601E-12 0.000000000000E+00
     1.060000000000E+02-2.721875000000E+01 3.488359589893E-09-1.108775397289E+00
    -1.281499862671E-06 1.309823710471E-04 9.719282388687E-06 5.440616340637E+03
     1.404000000000E+05-3.725290298462E-09 1.120017991485E+00 5.401670932770E-08
     9.524803896028E-01 1.298437500000E+02-1.770912074168E-03-5.660592929274E-09
    -1.303625729816E-10 5.210000000000E+02 2.036000000000E+03 0.000000000000E+00
     3.120000000000E+00 0.000000000000E+00 2.328306436539E-10 2.328306436539E-10
     1.410850000000E+05 0.000000000000E+00 0.000000000000E+00 0.000000000000E+00
E08 2019 01 14 15 00 00 6.423545244616E-03-7.432277016051E-12 0.000000000000E+00
     1.060000000000E+02-3.553125000000E+01 3.300137463972E-09-7.945256282101E-01
    -1.627951860428E-06 2.134095411748E-04 9.287148714066E-06 5.440621061325E+03
     1.404000000000E+05-1.676380634308E-08 1.111414263048E+00 2.793967723846E-08
     9.584234430977E-01 1.428750000000E+02 4.705767824861E-01-5.583804016422E-09
    -1.296482575132E-10 5.210000000000E+02 2.036000000000E+03 0.000000000000E+00
     3.120000000000E+00 0.000000000000E+00-8.381903171539E-09-9.778887033463E-09
     1.410850000000E+05 0.000000000000E+00 0.000000000000E+00 0.000000000000E+00
E09 2019 01 14 15 00 00 6.558432010934E-03-1.132605120802E-11 0.000000000000E+00
     1.060000000000E+02-6.381250000000E+01 3.345139338481E-09 1.941494669812E+00
    -2.857297658920E-06 2.387140411884E-04 9.652227163315E-06 5.440619289398E+03
     1.404000000000E+05 1.117587089539E-08 1.111412372958E+00-4.097819328308E-08
     9.584540268631E-01 1.329062500000E+02 8.947790530820E-02-5.623091367183E-09
    -2.325096849617E-10 5.210000000000E+02 2.036000000000E+03 0.000000000000E+00
     3.120000000000E+00 0.000000000000E+00-3.492459654808E-09-3.958120942116E-09
     1.410850000000E+05 0.000000000000E+00 0.000000000000E+00 0.000000000000E+00
E12 2019 01 14 15 00 00 5.941274226643E-03 8.431300102529E-11 0.000000000000E+00
     1.060000000000E+02-2.134375000000E+01 2.694397946775E-09-5.133797773798E-01
    -9.778887033463E-07 4.071268485859E-04 9.164214134216E-06 5.440609832764E+03
     1.404000000000E+05 2.980232238770E-08-9.853297176806E-01 1.117587089539E-08
     9.819907154206E-01 1.503437500000E+02-8.392530420979E-01-5.489514374594E-09
     3.653723620826E-10 5.210000000000E+02 2.036000000000E+03 0.000000000000E+00
     3.120000000000E+00 0.000000000000E+00-1.536682248116E-08-1.583248376846E-08
     1.410850000000E+05 0.000000000000E+00 0.000000000000E+00 0.000000000000E+00
E15 2019 01 14 15 00 00 9.229806018993E-04-1.080024958355E-12 0.000000000000E+00
     1.060000000000E+02-2.312500000000E+00 2.709398571611E-09-2.927748542101E+00
    -2.086162567139E-07 3.913799300790E-04 7.720664143562E-06 5.440599815369E+03
     1.404000000000E+05-9.313225746155E-09-9.906078763714E-01-9.313225746155E-09
     9.851768383526E-01 1.841562500000E+02-1.581247618362E+00-5.492371636467E-09
     2.853690296227E-10 5.210000000000E+02 2.036000000000E+03 0.000000000000E+00
     3.120000000000E+00 4.550000000000E+02 1.629814505577E-09 1.396983861923E-09
     1.410850000000E+05 0.000000000000E+00 0.000000000000E+00 0.000000000000E+00
